#aV2012  7 12  0  0  0.00000000     288 DD+AD WGS84 FIT  NGA
## 1696 345600.00000000   300.00000000 56120 0.0000000000000
+   31     1  2  3  4  5  6  7  8  9 10 11 12 13 14 15 16 17
+         18 19 20 21 22 23 25 26 27 28 29 30 31 32  0  0  0
+          0  0  0  0  0  0  0  0  0  0  0  0  0  0  0  0  0
+          0  0  0  0  0  0  0  0  0  0  0  0  0  0  0  0  0
+          0  0  0  0  0  0  0  0  0  0  0  0  0  0  0  0  0
++         2  2  2  2  2  2  2  2  2  2  2  2  2  2  2  2  2
++         2  2  2  2  2  2  2  2  2  2  2  2  2  2  2  0  0
++         0  0  0  0  0  0  0  0  0  0  0  0  0  0  0  0  0
++         0  0  0  0  0  0  0  0  0  0  0  0  0  0  0  0  0
++         0  0  0  0  0  0  0  0  0  0  0  0  0  0  0  0  0
%c cc cc ccc ccc cccc cccc cccc cccc ccccc ccccc ccccc ccccc
%c cc cc ccc ccc cccc cccc cccc cccc ccccc ccccc ccccc ccccc
%f  0.0000000  0.000000000  0.00000000000  0.000000000000000
%f  0.0000000  0.000000000  0.00000000000  0.000000000000000
%i    0    0    0    0      0      0      0      0         0
%i    0    0    0    0      0      0      0      0         0
/*      NGA, ST. LOUIS,MO.                                  
/*   EPHEMERIS COMPUTED FROM  1 DAYS OF DATA
/*   EPOCHA SMOOTHER  
/* CCCCCCCCCCCCCCCCCCCCCCCCCCCCCCCCCCCCCCCCCCCCCCCCCCCCCCCCC
*  2012  7 12 11 20  0.00000000                                                 
P  1 -15703.161939    271.240386  21416.196224    265.228720                    
V  1  -8060.792062 -25992.935236  -5537.872588      0.015645                    
P  2  13735.119105  21504.240761  -8116.734997    396.558401                    
V  2    669.746208  10758.202987  28630.943050      0.011890                    
P  3 -21225.448013 -10846.214132 -12472.453721     74.329637                    
V  3  15216.827982  -1605.103725 -25219.686460      0.050146                    
P  4   5794.285394  25499.540282   3301.736870    241.499709                    
V  4  -5038.586086  -3138.826616  31052.063649      0.113656                    
P  5  11877.444944   9889.083266 -21620.168855   -333.885739                    
V  5 -18313.092535  20442.446597   -584.636352     -0.034762                    
P  6 -17510.181295 -13576.369584 -14754.940654      7.936145                    
V  6  19014.793621    475.524242 -22512.642263     -0.049504                    
P  7  -9763.311990  14322.944513 -20022.907047     99.632176                    
V  7  -8575.199413 -24049.812076 -13270.916926      0.038511                    
P  8  -1769.467381  23944.881966 -10601.537917      1.730876                    
V  8  -4770.523029 -13004.602270 -28949.746875      0.000962                    
P  9  15815.869312   4961.066309  20183.240063    171.193140                    
V  9   7698.966674  25734.938258 -12081.529760      0.025770                    
P 10  -4077.032282  20997.812388 -15741.247600    -44.505532                    
V 10 -15269.619421  12739.154337  21689.639426     -0.013343                    
P 11 -19819.265779  -5202.790788  16659.371781   -280.941460                    
V 11  -9934.493243 -19909.019435 -17308.005893     -0.038665                    
P 12  20529.138672  -6811.110383  15267.855293     79.499885                    
V 12 -12122.191396  15305.859339  23293.584327      0.020724                    
P 13 -17306.173992   7674.169209 -18814.903297    195.146825                    
V 13 -22145.137295  -7920.358562  17162.043125     -0.024821                    
P 14   -441.051015 -15396.019778  21838.840653    206.925465                    
V 14  26281.877961   7091.859248   5430.292895      0.006485                    
P 15  26371.089783   3546.498175   1901.686058    -92.441626                    
V 15   1796.873270   3511.901216 -31143.290120     -0.003635                    
P 16 -10984.484908  -9890.396577 -22074.861471   -240.854235                    
V 16  19642.559425 -19890.980896   -554.721342     -0.010585                    
P 17   -582.836196  15459.121531  21788.666103    114.003729                    
V 17 -26446.262125  -6398.446178   3632.101598     -0.029737                    
P 18  16470.485966 -20497.042473   2225.049514    204.864054                    
V 18   4664.236325    968.894436 -31102.199786      0.018122                    
P 19 -25655.018376  -7676.757209    267.046248   -283.928865                    
V 19    343.988002  -2484.666884 -31491.269592     -0.036101                    
P 20 -20756.421310  11086.390844  12096.882159     64.707619                    
V 20   7464.593184 -14181.692963  25541.777805      0.004115                    
P 21   7513.713656 -18173.586225 -17081.080293   -236.073102                    
V 21   9555.485276  21078.922138 -18280.310648     -0.024629                    
P 22   5393.998634 -21760.234908  14331.124213    145.391927                    
V 22  14342.947657 -11300.352068 -22987.459142      0.004775                    
P 23 -24967.245635   1183.123937  -9489.177566    186.222463                    
V 23 -11198.010186  -4858.275992  28348.089387     -0.038576                    
P 25  19238.283787 -17853.988221   3802.484160     37.101865                    
V 25  -1300.419018   5363.796098  31495.159191      0.008175                    
P 26  21038.649238  13471.461336 -10150.984237   -348.702755                    
V 26 -11756.428520  -2049.313991 -28518.091259      0.112295                    
P 27  16956.623114  10048.926474  18649.844409    408.368547                    
V 27   6950.103356  21104.337471 -17798.373923      0.041099                    
P 28  -8849.312190  21483.328456  13216.366903    164.116850                    
V 28 -12500.916585  10038.962425 -25988.514246      0.039366                    
P 29  20522.042550  -5933.342848 -15690.368084    332.780641                    
V 29  18922.840519   6897.798226  22098.423438      0.039401                    
P 30  -3465.984492 -18219.327950 -19379.016453   -293.369296                    
V 30  15082.714577 -18501.350249  14974.857267     -0.239847                    
P 31  -6443.581606 -25568.701008   1943.303435    259.659338                    
V 31   2925.836524   1460.635766  32229.641790      0.028273                    
P 32 -19601.703672    852.630484  17878.198017   -464.270548                    
V 32  15097.167250 -16816.227787  18031.976090     -0.042292                    
EOF
